#dP2023  3  1 18  0  0.00000000      96 __u+U ITR00 EXT  IAC
## 2251 324000.00000000   900.00000000 60004 0.7500000000000
+  118   C06C07C08C09C10C11C12C13C14C16C19C20C21C22C23C24C25
+        C26C27C28C29C30C32C33C34C35C36C37C38C39C40C41C42C43
+        C44C45C46E01E02E03E04E05E07E08E09E10E11E12E14E15E18
+        E19E21E24E25E26E27E30E31E33E34E36G01G02G03G04G05G06
+        G07G08G09G10G11G12G13G14G15G16G17G18G19G20G21G22G23
+        G24G25G26G27G28G29G30G32J02J03J04R01R02R03R04R05R07
+        R08R09R11R12R13R14R15R16R17R18R19R20R21R22R24R25  0
++         9 11 11 10 10  8  8 11  9  9  7  8  9  9  8 10  7
++         9  9  9 10  9  8  9  9 15  7  8  9 10 11  7  7  9
++         7  7  9  6  7  8  7  8  6  6  7  6  8  7  8  8  7
++         6  7  7  7  7  7  7  7  8  8  7  6  8  7  7  7  8
++         7  7  7  8  8  7  7  7  7  7  7  8  7  6  7  8  8
++         7  8  7  7  7  7  6  8  9 12  8  8  9  9  8 10  6
++         7  8  7  9  8  6  8  8  7  5  9  9  8  7  8  9  0
%c M  cc GPS ccc cccc cccc cccc cccc ccccc ccccc ccccc ccccc
%c cc cc ccc ccc cccc cccc cccc cccc ccccc ccccc ccccc ccccc
%f  0.0000000  0.000000000  0.00000000000  0.000000000000000
%f  0.0000000  0.000000000  0.00000000000  0.000000000000000
%i    0    0    0    0      0      0      0      0         0
%i    0    0    0    0      0      0      0      0         0
/* IAC                                ULTRA-RAPID PREDICTION
/* S/V CLOCKS ARE ALIGNED TO GNSS TIME                      
/* G:C1WC2W R:C1PC2P E:C1XC5X C:C2IC6I J:C1CC2S             
/* PCV:IGS20_2247 OL/AL:FES2004  NONE     YN ORB:CoN CLK:CoN
*  2023 03 02 12 45  0.00000000
PC06 -12954.008840  23080.779334 -32857.042142   -193.825602
PC07 -14686.843288  39207.536240   4154.304278     38.699024
PC08   1458.409379  32838.099987  26517.619794    522.550966
PC09  -3003.130595  24106.374102 -34070.828026    884.787439
PC10  -8545.656227  39674.713397  10704.798023     -0.031191
PC11   6481.277116  14535.049967  22992.396735    -91.482140
PC12 -14158.145279  14509.388394  19215.302203    482.468303
PC13   5787.948168  35746.838579  21978.537613    220.043832
PC14   1624.796642  23488.240759 -14914.798242    540.931452
PC16 -15199.664492  22016.890879 -32438.169361    149.289312
PC19  -8568.209323 -16638.364335  20737.232364   -894.924011
PC20   4393.967905 -26278.410689   8369.371212    699.529827
PC21 -15758.326459  20702.614198  10080.557649   -909.262170
PC22 -17229.139855   3044.942389  21738.509787   -606.467261
PC23  21218.837670   8284.142601  16120.456331   -882.937004
PC24   2646.438825  22510.648917 -16316.090092   -345.545212
PC25  18186.735365  21162.864058    874.028465     80.751021
PC26 -11772.546913  11322.851059 -22644.867552    -86.108880
PC27  21595.304002 -11930.573018 -13043.006771    104.513541
PC28  27693.678804  -1402.277986   3133.576721     76.367711
PC29 -17592.663790 -10435.105456 -18991.978327     88.055089
PC30   3454.486628 -16370.942912 -22336.447020      1.010578
PC32  15601.218656 -20822.764273 -10083.918561   -609.140310
PC33   8623.713677  16650.789102 -20652.352575   -871.250107
PC34  -2065.357537  16325.566503  22529.739144    117.585434
PC35 -27565.115798   1628.156665  -4207.902802    671.625422
PC36 -17317.481341 -21875.681191   -198.076693   -591.045188
PC37  13092.758517  -9707.585608  22656.791964   -810.175935
PC38  -6288.895240  28325.395898  30680.648779     62.270475
PC39 -21522.499037  21184.122182 -29477.339453     -2.004747
PC40 -21362.727668  36140.695541   2146.455259    -16.458821
PC41  17097.760897  -2450.108466 -21862.219034   -674.086620
PC42  -5304.272809  26441.920774  -7078.255592   -808.676665
PC43  16812.844017  10994.166519  19350.019975      9.761426
PC44 -21331.789709  12688.354227  12780.550863     31.591773
PC45 -21070.126554  -7916.946399 -16487.683066    -67.019817
PC46  -4198.043198 -23017.049009  15170.911915    -37.016017
PE01      0.000000      0.000000      0.000000   -599.168474
PE02  12489.836503  22643.059029  14413.594868     23.903458
PE03  13634.156582  10807.473126 -23948.468215   -655.150215
PE04 -25042.299379   5869.097816  14660.213317    -69.551208
PE05  -6097.511120  21540.351651 -19360.752331    -90.364571
PE07  22036.568310 -19472.563648   3413.500728    -26.825031
PE08  24934.095389  -5850.707414 -14844.874980    -44.524377
PE09 -22108.950093  19405.242159  -3229.646111   -854.487332
PE10 -23967.685376   1944.869817  17260.185842   -516.138790
PE11 -15841.616252   9522.107324  23119.788041   1089.749670
PE12 -27633.689000  -5262.437690   9254.714657   -441.694906
PE14   5141.854183 -23653.103078 -21388.429791    156.870915
PE15  27671.128544   5478.971351  -8940.113001     -4.665420
PE18   3741.382592  15285.021781  18140.364119   -330.622331
PE19 -11119.202291 -12746.726800  24300.127221  -3107.928463
PE21  -1584.747488 -29434.815689   2638.479762   -515.159983
PE24 -11496.842653  18957.665498 -19645.557702  -1142.772566
PE25   1356.579972  29425.915927  -2967.629167   -600.480417
PE26  -4921.484990 -18251.215494 -22772.205891     33.579893
PE27  10959.801004 -19693.842140  19175.998793   -524.875825
PE30  16981.592799   2361.010072  24114.638524  -1284.401677
PE31 -16914.078981  -1524.114290 -24243.412636   -517.443604
PE33 -22375.861286 -16541.492954 -10109.814807   -450.534630
PE34  22499.013634  16447.457712   9971.518017    -32.789156
PE36   4086.880778  17931.825806  23194.823658    -20.147662
PG01 -21917.845285 -14742.273596  -4551.492371    206.935552
PG02  23834.299948  11289.790627   2323.587645   -617.275708
PG03 -12434.776605 -16166.551269  16955.169628   -356.236640
PG04 -16998.736553  -5627.674838  19661.775275    -16.195611
PG05   5540.392207  25619.071689  -4037.511119   -117.910065
PG06 -11907.113030   9925.606092  21649.164138    577.768154
PG07 -24701.889017  -5888.071084  -8150.366557    231.144487
PG08  -6343.606717 -14058.727600 -21652.913281   -111.005315
PG09 -22761.142873   4782.365418  12794.293348   -208.492284
PG10  11494.320377 -14947.339491 -18399.328354    -26.886397
PG11   2225.182164  17242.837324  20099.786170   -118.568315
PG12  10566.013159  18591.909070  15533.316417   -346.613017
PG13  -2490.733425  16806.457926 -20539.370172    484.243102
PG14 -13537.441037  12056.666438 -19362.595511    -14.480705
PG15   8624.429782  13677.775738 -21504.921747     17.981226
PG16   -791.632768 -26225.402858  -2194.280099   -517.611572
PG17 -22930.091427  13512.009148    393.680702    703.157130
PG18  23398.596155   2682.120648 -12416.989118   -162.405924
PG19 -18062.107293  16635.773762   9528.578177    284.616824
PG20    402.071663  25609.353681   7460.995705    447.509489
PG21 -18094.581083 -15844.261802 -11552.824437    154.216617
PG22  14648.580989 -18236.309846  12856.331828    437.351535
PG23  14800.271655  -2322.152570 -21922.943103      8.525128
PG24  20327.849732  15146.973537  -8956.424131    -95.250223
PG25  14888.730991   8449.609131  20064.239117    424.393394
PG26   5626.560865 -23047.027949  11472.950563    241.824653
PG27   5391.864123 -18615.600890 -18206.722547     90.243365
PG28  13634.306022  -9610.311990  20635.647291     31.062742
PG29  21684.869663   -256.891376  15338.018242   -588.863524
PG30 -19028.913714   5043.418286 -17848.491593   -528.480898
PG32  20855.953833 -16111.090083   2426.896350   -411.674623
PJ02 -21186.431177  27868.884936 -18914.226541     -1.069200
PJ03 -29775.865460  23522.308141  23434.121929      0.588830
PJ04 -29800.422052  28822.154783  14215.167986     94.188176
PR01   1125.925638  16316.089631 -19565.176464     24.001613
PR02  12545.215576   -267.907949 -22149.135316    -23.210104
PR03  16398.858753 -15867.625493 -11290.179019     73.423807
PR04  11228.662079 -22214.245670   5582.020811    177.802299
PR05    -62.676719 -16529.068205  19434.421952    108.587355
PR07 -16425.599057  16396.355781  10684.965497     50.940919
PR08 -11071.599688  22291.181756  -5595.407559    -69.687938
PR09 -15797.379822 -12078.550455 -16009.007554    106.908163
PR11    601.860947  18536.994438 -17500.342246    -11.928059
PR12  11831.897079  22607.642771   -317.627120     25.354919
PR13  15583.436244  13752.639181  14770.402203    -32.585450
PR14  10029.286488  -4879.023449  22944.828403     24.353511
PR15  -1104.482603 -19264.887742  16695.239408     90.719013
PR16 -11856.547680 -22591.953346    713.899607     11.883121
PR17  22435.806979  -4132.968601 -11433.954289    609.281626
PR18   8471.832264  -9453.442374 -22097.174990     69.406320
PR19  -8109.662727 -10410.906989 -21828.091635   -223.774838
PR20 -24068.253883  -5122.210040  -6804.666822    -88.614750
PR21 -21459.381645   4679.752766  12957.369160   -377.277863
PR22  -7998.233927   9746.649274  22204.748913     73.157117
PR24  24396.793321   4224.358706   6166.563129    150.673433
PR25 -22729.972468   3108.339534  11142.793060     56.560130
EOF
